[{"OBJECT_NAME":"STARLINK-5720","OBJECT_ID":"2023-020BC","EPOCH":"2026-03-09T04:05:53.378016","MEAN_MOTION":15.02528619,"ECCENTRICITY":0.00010835,"INCLINATION":43.0063,"RA_OF_ASC_NODE":354.2756,"ARG_OF_PERICENTER":271.0905,"MEAN_ANOMALY":88.9814,"EPHEMERIS_TYPE":0,"CLASSIFICATION_TYPE":"U","NORAD_CAT_ID":55619,"ELEMENT_SET_NO":999,"REV_AT_EPOCH":16899,"BSTAR":-4.2936389e-5,"MEAN_MOTION_DOT":-7.83e-6,"MEAN_MOTION_DDOT":0},{"OBJECT_NAME":"UNKNOWN","OBJECT_ID":"","EPOCH":"2026-03-09T02:53:57.432768","MEAN_MOTION":15.04852502,"ECCENTRICITY":0.0007482,"INCLINATION":86.6587,"RA_OF_ASC_NODE":118.2618,"ARG_OF_PERICENTER":183.1315,"MEAN_ANOMALY":176.9875,"EPHEMERIS_TYPE":0,"CLASSIFICATION_TYPE":"U","NORAD_CAT_ID":82402,"ELEMENT_SET_NO":999,"REV_AT_EPOCH":46745,"BSTAR":0.00051144,"MEAN_MOTION_DOT":7.26e-5,"MEAN_MOTION_DDOT":0}]
